GPS BIIA-23 (PRN 18)    
1 22877U 93068A   18187.32920662 -.00000047  00000-0  00000+0 0  9998
2 22877  54.4379  82.7186 0145319  75.4142 105.3575  2.00566983180934
GPS BIIR-2  (PRN 13)    
1 24876U 97035A   18187.47136182  .00000093  00000-0  00000+0 0  9999
2 24876  55.4874 212.0106 0030678  88.2064 272.2045  2.00564818153539
GPS BIIR-3  (PRN 11)    
1 25933U 99055A   18187.33163123 -.00000062  00000-0  00000+0 0  9995
2 25933  51.9004  60.8557 0167500 102.1186  83.1033  2.00566769137349
GPS BIIR-4  (PRN 20)    
1 26360U 00025A   18187.22640248  .00000040  00000-0  00000+0 0  9990
2 26360  53.2077 138.8736 0037690 118.6549  37.8559  2.00563851133035
GPS BIIR-5  (PRN 28)    
1 26407U 00040A   18187.52125177 -.00000053  00000-0  00000+0 0  9996
2 26407  56.4707 330.1400 0196822 272.8972  75.0667  2.00562982131725
GPS BIIR-6  (PRN 14)    
1 26605U 00071A   18187.35199532  .00000094  00000-0  00000+0 0  9991
2 26605  55.0608 209.5993 0102373 248.8882 241.9024  2.00571869129314
GPS BIIR-8  (PRN 16)    
1 27663U 03005A   18186.94810431 -.00000052  00000-0  00000+0 0  9993
2 27663  56.5351 329.9210 0098874  28.8194  25.2190  2.00565875113074
GPS BIIR-9  (PRN 21)    
1 27704U 03010A   18187.33761997 -.00000048  00000-0  00000+0 0  9996
2 27704  54.1087  82.2983 0245869 271.4712  23.0501  2.00563135111882
GPS BIIR-10 (PRN 22)    
1 28129U 03058A   18187.16566812  .00000045  00000-0  00000+0 0  9996
2 28129  53.0209 141.7270 0075347 273.1057  86.0123  2.00551388106577
GPS BIIR-11 (PRN 19)    
1 28190U 04009A   18186.91747602 -.00000055  00000-0  00000+0 0  9993
2 28190  56.1793  30.7642 0096550  69.6513 109.3612  2.00558828104746
GPS BIIR-12 (PRN 23)    
1 28361U 04023A   18187.36112338  .00000096  00000-0  00000+0 0  9995
2 28361  54.0621 204.3197 0127916 226.2869 189.9506  2.00551798102847
GPS BIIR-13 (PRN 02)    
1 28474U 04045A   18187.20543774 -.00000048  00000-0  00000+0 0  9997
2 28474  54.4766  81.9247 0181332 254.4289  48.8532  2.00552412100206
GPS BIIRM-1 (PRN 17)    
1 28874U 05038A   18187.38562084 -.00000052  00000-0  00000+0 0  9993
2 28874  56.3199  28.0583 0125884 258.3635 281.5402  2.00574886 93611
GPS BIIRM-2 (PRN 31)    
1 29486U 06042A   18187.35461993 -.00000005  00000-0  00000+0 0  9991
2 29486  55.1680 266.9016 0087850 351.2673  90.8331  2.00561585 86326
GPS BIIRM-3 (PRN 12)    
1 29601U 06052A   18186.68519090 -.00000052  00000-0  00000-0 0  9991
2 29601  56.5112 328.8479 0069621  56.3511 304.3172  2.00576883 85176
GPS BIIRM-4 (PRN 15)    
1 32260U 07047A   18186.00967659  .00000083  00000-0  00000+0 0  9997
2 32260  53.1867 200.3805 0101971  38.2062 322.5508  2.00551909 78598
GPS BIIRM-5 (PRN 29)    
1 32384U 07062A   18187.04609434 -.00000054  00000-0  00000+0 0  9999
2 32384  56.3942  28.6823 0006116  71.8102  91.9772  2.00564626 77340
GPS BIIRM-6 (PRN 07)    
1 32711U 08012A   18187.41510910 -.00000003  00000-0  00000+0 0  9994
2 32711  54.9022 266.1733 0119936 216.7055 142.5329  2.00565775 75534
GPS BIIRM-8 (PRN 05)    
1 35752U 09043A   18187.37378417  .00000051  00000-0  00000+0 0  9998
2 35752  54.3256 143.9337 0053303  33.9796 325.5957  2.00555876 65117
GPS BIIF-1  (PRN 25)    
1 36585U 10022A   18187.05044831 -.00000054  00000-0  00000+0 0  9991
2 36585  55.8011 325.3821 0073008  48.6797 180.9382  2.00569612 59367
GPS BIIF-2  (PRN 01)    
1 37753U 11036A   18187.36321903 -.00000044  00000-0  00000+0 0  9996
2 37753  55.6759  85.4681 0078220  36.1606 145.6555  2.00564427 51048
GPS BIIF-3  (PRN 24)    
1 38833U 12053A   18186.59855456 -.00000002  00000-0  00000+0 0  9999
2 38833  53.9328 262.7451 0068673  29.2804 331.1715  2.00567124 42104
GPS BIIF-4  (PRN 27)    
1 39166U 13023A   18186.95546086 -.00000055  00000-0  00000+0 0  9991
2 39166  56.0164  24.9653 0059091  23.5356 336.7824  2.00562492 37649
GPS BIIF-5  (PRN 30)    
1 39533U 14008A   18186.95531544 -.00000009  00000-0  00000+0 0  9995
2 39533  54.0766 268.0830 0035820 189.7204 170.2736  2.00558027 32009
GPS BIIF-6  (PRN 06)    
1 39741U 14026A   18186.73479110 -.00000043  00000-0  00000+0 0  9990
2 39741  55.6589  85.0160 0012866 294.9612  64.9444  2.00565814 30285
GPS BIIF-7  (PRN 09)    
1 40105U 14045A   18187.32475052  .00000097  00000-0  00000+0 0  9992
2 40105  54.5880 204.4361 0006743 111.2689 248.8514  2.00572986 28742
GPS BIIF-8  (PRN 03)    
1 40294U 14068A   18187.19805840  .00000055  00000-0  00000+0 0  9997
2 40294  55.0767 145.2225 0014196  18.8865 341.1460  2.00557336 26962
GPS BIIF-9  (PRN 26)    
1 40534U 15013A   18186.33557117 -.00000055  00000-0  00000+0 0  9992
2 40534  54.7420 324.1129 0027701   2.0682 357.9506  2.00562628 24010
GPS BIIF-10  (PRN 08)   
1 40730U 15033A   18186.99732593 -.00000056  00000-0  00000+0 0  9998
2 40730  55.5465  24.4611 0035549 333.3843  26.4808  2.00573596 21780
GPS BIIF-11  (PRN 10)   
1 41019U 15062A   18185.55163857  .00000053  00000-0  00000+0 0  9999
2 41019  55.0813 145.0914 0037067 205.6642 154.1294  2.00564429 19571
GPS BIIF-12  (PRN 32)   
1 41328U 16007A   18186.63648093  .00000090  00000-0  00000+0 0  9993
2 41328  54.8382 204.7591 0023912 219.5846 140.2876  2.00562518 17656
